{"fetched_at":"2026-03-29T16:36:15Z","count":15609,"tles":[{"name":"STARLINK-4677","line1":"1 53600U 22104N   26087.59917092  .00000286  00000+0  36046-4 0  9996","line2":"2 53600  53.2164 159.6377 0001274  88.5964 271.5174 15.08842695198462","category":"Starlink"}]}